ZHUHAI-1 01 (CAS-4A)    
1 42761U 17034D   24153.88341232  .00016356  00000+0  59690-3 0  9993
2 42761  43.0231 311.3788 0012255 259.1337 100.8136 15.27830296385076
CARTOSAT-2E             
1 42767U 17036C   24154.18865584  .00006320  00000+0  30321-3 0  9996
2 42767  97.4389 213.7866 0005235  41.9459 318.2176 15.19219014385038
FORMOSAT-5              
1 42920U 17049A   24154.16030946  .00000330  00000+0  94724-4 0  9998
2 42920  98.2908 232.1004 0009972 210.1390 149.9232 14.50963086358648
SENTINEL-5P             
1 42969U 17064A   24153.46775523  .00000114  00000+0  74652-4 0  9995
2 42969  98.7208  92.9094 0001511  85.9904 274.1444 14.19577319343768
SKYSAT-C11              
1 42987U 17068A   24153.90406858  .00018292  00000+0  47374-3 0  9996
2 42987  97.3561 280.1586 0002753  22.3922 337.7444 15.39097611368292
SKYSAT-C10              
1 42988U 17068B   24154.11135749  .00014264  00000+0  47516-3 0  9992
2 42988  97.3641 280.1877 0002820 296.9254  63.1699 15.31217989368282
SKYSAT-C9               
1 42989U 17068C   24153.33036823  .00013239  00000+0  41908-3 0  9999
2 42989  97.3570 277.8803 0018544  25.1901 335.0241 15.32711809368350
SKYSAT-C8               
1 42990U 17068D   24153.35126379  .00011870  00000+0  41539-3 0  9998
2 42990  97.3668 279.0253 0005145 178.1109 182.0152 15.29651576368121
SKYSAT-C7               
1 42991U 17068E   24153.84346443  .00013324  00000+0  46361-3 0  9993
2 42991  97.3669 279.9135 0008251 121.2858 238.9192 15.29790116368222
SKYSAT-C6               
1 42992U 17068F   24153.87486540  .00013170  00000+0  44159-3 0  9992
2 42992  97.3697 280.9308 0002651 188.6166 171.5030 15.31025675368266
CARTOSAT-2F             
1 43111U 18004A   24154.15566852  .00007349  00000+0  35099-3 0  9998
2 43111  97.4323 213.8847 0001449 102.1807 257.9590 15.19328684354219
GAOFEN-1 02             
1 43259U 18031A   24154.19887988  .00001257  00000+0  18729-3 0  9994
2 43259  97.8209 222.1451 0002590 205.8372 154.2709 14.76557639332762
GAOFEN-1 03             
1 43260U 18031B   24154.17715622  .00001302  00000+0  19373-3 0  9996
2 43260  97.8203 222.0458 0003272 309.2983  50.7937 14.76562096332754
GAOFEN-1 04             
1 43262U 18031D   24154.15253918  .00001293  00000+0  19240-3 0  9993
2 43262  97.8212 222.1268 0002376 253.1681 106.9269 14.76551968332749
SENTINEL-3B             
1 43437U 18039A   24154.19983503  .00000188  00000+0  95640-4 0  9990
2 43437  98.6286 221.3243 0000782  93.9398 266.1871 14.26731497317890
GAOFEN-5 01             
1 43461U 18043A   24153.84734927  .00000712  00000+0  16126-3 0  9991
2 43461  98.3550 104.1936 0001082 184.1843 175.9347 14.59134097322932
GAOFEN-6                
1 43484U 18048A   24154.19244227  .00000519  00000+0  81711-4 0  9997
2 43484  97.8637 228.9633 0012436  65.7019 294.5489 14.76462708323455
GAOFEN-11 01            
1 43585U 18063A   24154.18849613  .00009654  00000+0  33109-3 0  9991
2 43585  97.2325 220.4673 0009175 154.3154 205.8545 15.30333892325460
ICESAT-2                
1 43613U 18070A   24154.12850379  .00016593  00000+0  60140-3 0  9991
2 43613  92.0011  90.5921 0010774 139.0580 221.1481 15.28261967318674
HYSIS                   
1 43719U 18096A   24154.16810489  .00001908  00000+0  26714-3 0  9991
2 43719  97.8665 218.4126 0001833  53.7268 306.4112 14.78676674297323
KAZSTSAT                
1 43783U 18099AB  24154.13613679  .00001566  00000+0  14294-3 0  9994
2 43783  97.5273 205.7371 0008199  41.2906 318.8935 14.96421102299731
SAUDISAT 5A             
1 43831U 18102A   24154.19391180  .00005273  00000+0  27915-3 0  9992
2 43831  97.4086 220.1870 0011472 224.9973 135.0331 15.15791039302323
SAUDISAT 5B             
1 43833U 18102C   24154.17239978  .00005199  00000+0  27027-3 0  9999
2 43833  97.4134 221.9624 0012074 229.7003 130.3175 15.16436671302403
GAOFEN-10R              
1 44622U 19066A   24154.18676248  .00002182  00000+0  27250-3 0  9999
2 44622  97.9641  96.1785 0003070 131.0977 229.0503 14.83391735251991
CARTOSAT-3              
1 44804U 19081A   24154.15887178  .00006227  00000+0  29949-3 0  9992
2 44804  97.5337 211.9730 0012105 228.4034 131.6163 15.19097772250300
GAOFEN-12 01            
1 44819U 19082A   24154.18813940  .00000707  00000+0  97770-4 0  9993
2 44819  97.8235 168.6633 0000561 128.6774 231.4489 14.81018938243858
CSG-1                   
1 44873U 19092A   24154.20769131  .00000794  00000+0  10623-3 0  9996
2 44873  97.8868 337.5743 0001361  94.5121 265.6248 14.82158401241126
NUSAT-6 (HYPATIA)       
1 46272U 20061A   24154.19378674  .00068302  00000+0  80584-3 0  9997
2 46272  97.2323 228.2448 0000207 124.8428 235.2850 15.61131184209149
NEMO-HD                 
1 46277U 20061F   24154.18231152  .00007512  00000+0  29481-3 0  9995
2 46277  97.2981 217.2380 0002231 143.5774 216.5617 15.26005636207658
SENTINEL-6              
1 46984U 20086A   24153.61644677 -.00000066  00000+0 -22294-4 0  9999
2 46984  66.0415 243.6091 0007873 270.6180  89.3933 12.80928271164836
GAOFEN-12 02            
1 48079U 21026A   24154.17769758  .00000739  00000+0  10218-3 0  9998
2 48079  97.9495 145.9839 0001744  76.1525 283.9881 14.81020270171524
PLEIADES NEO 3          
1 48268U 21034A   24154.16744144  .00000738  00000+0  10036-3 0  9995
2 48268  97.8934 228.6253 0001042 124.4871 235.6441 14.81670889167339
NUSAT-19 (ROSALIND)     
1 48905U 21059AC  24154.19368951  .00046685  00000+0  77149-3 0  9990
2 48905  97.5889 305.6156 0003714  76.3498 283.8167 15.52094890163516
PLEIADES NEO 4          
1 49070U 21073E   24154.20118684  .00001661  00000+0  21761-3 0  9992
2 49070  97.8936 228.6553 0000986 118.5739 241.5573 14.81673076151054
LANDSAT 9               
1 49260U 21088A   24154.20081855  .00000557  00000+0  13351-3 0  9997
2 49260  98.1874 224.0731 0001020  90.0414 270.0902 14.57112085142506
CSG-2                   
1 51444U 22008A   24154.17393030  .00000609  00000+0  83077-4 0  9995
2 51444  97.8865 337.5370 0001425  87.8601 272.2776 14.82161938126233
INS-2TD                 
1 51658U 22013C   24154.05571825  .00047189  00000+0  10398-2 0  9993
2 51658  97.5198 176.8080 0007165 178.9748 181.1516 15.43763643127666
GAOFEN-12 03            
1 52912U 22069A   24154.22144732  .00001883  00000+0  24939-3 0  9998
2 52912  97.9133  45.4544 0004243 171.7264 188.4019 14.81058926104392
SWOT                    
1 54754U 22173A   24154.22071603  .00000131  00000+0  90555-4 0  9999
2 54754  77.6098 320.9347 0000519   4.5682 355.5474 14.00167402 74898
GAOFEN-12 04            
1 57654U 23123A   24154.18665634  .00001773  00000+0  23560-3 0  9999
2 57654  97.9117  71.8391 0003548 234.4263 125.6619 14.81003378 42401
PARS 1                  
1 59065U 24039Q   24154.21812333  .00006806  00000+0  26962-3 0  9999
2 59065  97.3922 116.3729 0012329 259.9033 100.0814 15.25671266 14297
RESURS-P 4              
1 59371U 24061A   24154.17544548  .00004775  00000+0  15394-3 0  9999
2 59371  97.1848 107.6747 0002307 111.9352 248.2136 15.32629020  9623
